#aV2023  3 22  0  0  0.00000000     288 DD+AD WGS84 FIT  NGA
## 2254 259200.00000000   300.00000000 60025 0.0000000000000
+   32     1  2  3  4  5  6  7  8  9 10 11 12 13 14 15 16 17
+         18 19 20 21 22 23 24 25 26 27 28 29 30 31 32  0  0
+          0  0  0  0  0  0  0  0  0  0  0  0  0  0  0  0  0
+          0  0  0  0  0  0  0  0  0  0  0  0  0  0  0  0  0
+          0  0  0  0  0  0  0  0  0  0  0  0  0  0  0  0  0
++         2  2  2  2  2  2  2  2  2  2  2  2  2  2  2  2  2
++         2  2  2  2  2  2  2  2  2  2  2  2  2  2  2  0  0
++         0  0  0  0  0  0  0  0  0  0  0  0  0  0  0  0  0
++         0  0  0  0  0  0  0  0  0  0  0  0  0  0  0  0  0
++         0  0  0  0  0  0  0  0  0  0  0  0  0  0  0  0  0
%c cc cc ccc ccc cccc cccc cccc cccc ccccc ccccc ccccc ccccc
%c cc cc ccc ccc cccc cccc cccc cccc ccccc ccccc ccccc ccccc
%f  0.0000000  0.000000000  0.00000000000  0.000000000000000
%f  0.0000000  0.000000000  0.00000000000  0.000000000000000
%i    0    0    0    0      0      0      0      0         0
%i    0    0    0    0      0      0      0      0         0
/*      NGA, ST. LOUIS,MO.                                  
/*   EPHEMERIS COMPUTED FROM 2 DAYS OF DATA                 
/*   EPOCHA v8 SMOOTHER                                     
/*   G2139 IERS2010 SATIGS SATAPC                           
*  2023  3 22  6 30  0.00000000
P  1 -13357.442280  16761.472156  15124.580170    200.405322                    
V  1   2110.616596 -19834.436445  23692.915630     -0.036837                    
P  2  10490.118533 -20818.029501 -12329.458779   -612.507037                    
V  2    593.552944  16677.390961 -26108.602789      0.028803                    
P  3 -21988.727586  13057.715458  -7065.532054   -345.345356                    
V  3  -9053.852152    909.045870  30499.795712      0.071607                    
P  4 -12639.892165   8864.876567 -21611.671127     -1.462016                    
V  4 -20191.320862 -18597.395757   4068.340254      0.088066                    
P  5  24891.024378  -3713.625252  -8846.529292   -120.409231                    
V  5  -9218.819661   6368.511578 -29054.387365     -0.014641                    
P  6   6372.932790  20687.818788 -15256.329400    582.958320                    
V  6  -4988.196749  18881.486022  23513.776165      0.025243                    
P  7  -6554.776048  25257.695363  -2792.825452    218.073891                    
V  7  -2782.498715  -4702.510822 -31587.316178     -0.079267                    
P  8 -20876.725516  -1868.236068  16477.308910   -114.103802                    
V  8 -15314.213250 -14309.304826 -20554.598857     -0.018121                    
P  9  -1839.594489  16995.872839 -20387.394142   -195.799766                    
V  9 -20729.200432 -15322.227357 -10985.699955      0.075820                    
P 10  -5451.483784 -13907.472839  22139.882374    -29.561022                    
V 10  25984.648770  -9401.213018    196.205215     -0.015671                    
P 11  13522.242743   7687.041396 -21524.061235   -137.794117                    
V 11  -6542.714245  26541.481709   5333.770632     -0.116923                    
P 12  23739.938552 -10648.599725  -5358.446657   -354.492970                    
V 12   6934.849630    748.169781  30952.395858     -0.046268                    
P 13  20988.008682  10487.686669  12462.507998    494.207875                    
V 13   9256.444071  13219.007850 -26150.060175      0.057698                    
P 14   1968.721133  15529.447827  21452.050966      2.714257                    
V 14 -26058.290607   8088.284420  -3599.770887      0.105091                    
P 15  20904.688348   -962.573890  16055.886640     23.724633                    
V 15  16697.815651  13298.320103 -20105.572527      0.033739                    
P 16 -24532.941450  -1314.964350 -10962.075402   -513.959147                    
V 16  12364.083230  -5260.655436 -27369.031346      0.023177                    
P 17  10126.891610  21329.067215  12491.186911    706.754108                    
V 17 -12322.024891  -9093.631362  26530.068592      0.019612                    
P 18   4640.502536 -26062.270246    662.529634   -190.239550                    
V 18   2645.812478   -340.449092 -32122.967999     -0.165177                    
P 19  17216.393546  20257.039629   2387.213897    293.301779                    
V 19  -3833.089555   -868.643919  31675.215860      0.050875                    
P 20  19998.064146   2817.350930 -17113.792422    443.537281                    
V 20 -18031.681384  12631.567188 -19151.027090     -0.023267                    
P 21 -15207.141907   7654.835812  20740.266409    154.334403                    
V 21   1009.946777 -25295.544634  11197.017222     -0.000127                    
P 22 -18790.789898 -18898.255435    254.900558    449.858992                    
V 22   1701.153511  -2010.582004  31685.006741      0.071881                    
P 23   7726.508430 -16929.411893  18898.356705     12.003805                    
V 23  22798.454818  -7634.616908 -16305.562492      0.021921                    
P 24  14267.919618 -13030.131610  17689.648914   -121.467760                    
V 24    261.752973  23523.767209  17201.107818     -0.151562                    
P 25  15983.374285 -16344.191941 -13604.460324    429.624420                    
V 25  16673.375796  -3626.559439  24781.621690      0.030045                    
P 26 -16007.404260  -8730.601491 -19534.812239    241.980708                    
V 26  21941.474915 -11096.107887 -12756.991624     -0.000056                    
P 27 -22603.173262 -11910.692350   7765.362132     75.730763                    
V 27  -6368.076070  -8087.191895 -29591.893450     -0.083505                    
P 28  -6432.116131 -21961.258382 -13516.543050     49.156702                    
V 28   4525.693831 -16643.561184  24935.335632      0.091738                    
P 29   6371.749614 -14147.354924 -21594.812630   -591.989501                    
V 29  19830.175212  18719.564494  -6506.145547     -0.018318                    
P 30   1953.446077  24875.504437   8806.687078   -525.888842                    
V 30  -5462.347057  10338.097107 -28577.746604      0.016172                    
P 31  -9385.353024 -17303.817053 -17798.126244   -212.184253                    
V 31   6285.554674 -21625.397654  18320.590176     -0.009058                    
P 32 -13890.076606 -20531.613479   9984.311274   -430.341227                    
V 32  11034.050359   6056.072474  28099.111216     -0.107029                    
EOF
